NORAD_CAT_ID,OBJECT_NAME,OBJECT_TYPE,EPOCH,MEAN_MOTION,ECCENTRICITY,INCLINATION,RA_OF_ASC_NODE,ARG_OF_PERICENTER,MEAN_ANOMALY,BSTAR,MEAN_MOTION_DOT,MEAN_MOTION_DDOT,TLE_LINE0,TLE_LINE1,TLE_LINE2,SEMIMAJOR_AXIS,PERIOD,APOGEE,PERIGEE,DECAYED
51964.0,STARLINK-3690,PAYLOAD,2024-06-24 14:46:09,15.06409182,0.0001394,53.0562,304.1042,106.1709,253.9433,8.0883e-05,9.24e-06,0.0,0 STARLINK-3690,1 51964U 22025J   24176.61538470  .00000924  00000-0  80883-4 0  9996,2 51964  53.0562 304.1042 0001394 106.1709 253.9433 15.06409182127064,6925.32,95.592,548.151,546.22,0.0
51964.0,STARLINK-3690,PAYLOAD,2024-06-25 13:03:43,15.06398971,0.0001536,53.0549,299.937,66.2697,293.8453,-1.9034e-05,-5.65e-06,0.0,0 STARLINK-3690,1 51964U 22025J   24177.54425003 -.00000565  00000-0 -19034-4 0  9999,2 51964  53.0549 299.9370 0001536  66.2697 293.8453 15.06398971128298,6925.352,95.592,548.28,546.153,0.0
51964.0,STARLINK-3690,PAYLOAD,2024-06-25 14:39:15,15.06397943,0.000143,53.0552,299.6433,69.9562,290.1581,-3.3272e-05,-7.77e-06,0.0,0 STARLINK-3690,1 51964U 22025J   24177.61059771 -.00000777  00000-0 -33272-4 0  9997,2 51964  53.0552 299.6433 0001430  69.9562 290.1581 15.06397943127214,6925.355,95.592,548.21,546.23,0.0
51964.0,STARLINK-3690,PAYLOAD,2024-06-25 16:14:47,15.06401965,0.0001332,53.0573,299.3375,90.6057,269.5085,-6.5907e-06,-3.8e-06,0.0,0 STARLINK-3690,1 51964U 22025J   24177.67693949 -.00000380  00000-0 -65907-5 0  9995,2 51964  53.0573 299.3375 0001332  90.6057 269.5085 15.06401965127220,6925.343,95.592,548.13,546.285,0.0
51964.0,STARLINK-3690,PAYLOAD,2024-06-26 11:21:15,15.06406438,0.0001368,53.0564,295.7638,126.2577,233.8539,-6.0795e-05,-1.187e-05,0.0,0 STARLINK-3690,1 51964U 22025J   24178.47309760 -.00001187  00000-0 -60795-4 0  9994,2 51964  53.0564 295.7638 0001368 126.2577 233.8539 15.06406438128436,6925.329,95.592,548.141,546.246,0.0
51964.0,STARLINK-3690,PAYLOAD,2024-06-27 12:49:53,15.06397846,0.0001228,53.0561,291.0022,95.3132,264.7997,4.7947e-05,4.33e-06,0.0,0 STARLINK-3690,1 51964U 22025J   24179.53465216  .00000433  00000-0  47947-4 0  9996,2 51964  53.0561 291.0022 0001228  95.3132 264.7997 15.06397846128597,6925.355,95.592,548.071,546.37,0.0
51964.0,STARLINK-3690,PAYLOAD,2024-06-27 19:12:02,15.06405789,0.0001236,53.056,289.809,98.8942,261.2187,6.549e-05,6.94e-06,0.0,0 STARLINK-3690,1 51964U 22025J   24179.80003344  .00000694  00000-0  65490-4 0  9998,2 51964  53.0560 289.8090 0001236  98.8942 261.2187 15.06405789128636,6925.331,95.592,548.052,546.34,0.0
51964.0,STARLINK-3690,PAYLOAD,2024-06-27 23:58:41,15.06385211,0.0001171,53.0559,288.9163,93.7238,266.3885,-7.5173e-05,-1.4e-05,0.0,0 STARLINK-3690,1 51964U 22025J   24179.99909104 -.00001400  00000-0 -75173-4 0  9994,2 51964  53.0559 288.9163 0001171  93.7238 266.3885 15.06385211128666,6925.394,95.593,548.07,546.448,0.0
51964.0,STARLINK-3690,PAYLOAD,2024-06-28 12:42:59,15.06400387,0.0001253,53.0542,286.5333,87.1809,272.9323,0.00011361,1.411e-05,0.0,0 STARLINK-3690,1 51964U 22025J   24180.52985342  .00001411  00000-0  11361-3 0  9991,2 51964  53.0542 286.5333 0001253  87.1809 272.9323 15.06400387128744,6925.347,95.592,548.08,546.345,0.0
51964.0,STARLINK-3690,PAYLOAD,2024-06-28 14:18:30,15.06415618,0.0001178,53.0554,286.2345,88.156,271.9564,0.00026925,3.733e-05,0.0,0 STARLINK-3690,1 51964U 22025J   24180.59618665  .00003733  00000-0  26925-3 0  9990,2 51964  53.0554 286.2345 0001178  88.1560 271.9564 15.06415618127667,6925.301,95.591,547.981,546.35,0.0
51964.0,STARLINK-3690,PAYLOAD,2024-06-28 17:29:34,15.06420249,0.0001221,53.0551,285.6385,91.5733,268.5396,0.00029133,4.063e-05,0.0,0 STARLINK-3690,1 51964U 22025J   24180.72887566  .00004063  00000-0  29133-3 0  9994,2 51964  53.0551 285.6385 0001221  91.5733 268.5396 15.06420249128774,6925.286,95.591,547.997,546.306,0.0
51964.0,STARLINK-3690,PAYLOAD,2024-06-28 23:51:45,15.06403815,0.0001756,53.056,284.4465,76.5947,283.5238,8.4801e-05,9.82e-06,0.0,0 STARLINK-3690,1 51964U 22025J   24180.99427984  .00000982  00000-0  84801-4 0  9997,2 51964  53.0560 284.4465 0001756  76.5947 283.5238 15.06403815128810,6925.337,95.592,548.418,545.986,0.0
51964.0,STARLINK-3690,PAYLOAD,2024-06-29 12:36:05,15.06395136,0.0001459,53.0555,282.0671,83.1168,276.9987,4.5617e-05,3.98e-06,0.0,0 STARLINK-3690,1 51964U 22025J   24181.52506078  .00000398  00000-0  45617-4 0  9992,2 51964  53.0555 282.0671 0001459  83.1168 276.9987 15.06395136128897,6925.363,95.592,548.239,546.218,0.0
51964.0,STARLINK-3690,PAYLOAD,2024-06-29 14:11:36,15.06404444,0.0001151,53.0552,281.766,79.6834,280.4284,8.4313e-05,9.75e-06,0.0,0 STARLINK-3690,1 51964U 22025J   24181.59139995  .00000975  00000-0  84313-4 0  9996,2 51964  53.0552 281.7660 0001151  79.6834 280.4284 15.06404444127811,6925.335,95.592,547.997,546.403,0.0
51964.0,STARLINK-3690,PAYLOAD,2024-06-29 23:44:51,15.06395323,0.0001109,53.0537,279.9804,86.132,273.9796,-4.3659e-05,-9.31e-06,0.0,0 STARLINK-3690,1 51964U 22025J   24181.98948993 -.00000931  00000-0 -43659-4 0  9997,2 51964  53.0537 279.9804 0001109  86.1320 273.9796 15.06395323128966,6925.363,95.592,547.996,546.46,0.0
51964.0,STARLINK-3690,PAYLOAD,2024-06-30 12:29:11,15.06390584,0.000124,53.0532,277.6006,93.0839,267.0292,-0.00015335,-2.564e-05,0.0,0 STARLINK-3690,1 51964U 22025J   24182.52027547 -.00002564  00000-0 -15335-3 0  9994,2 51964  53.0532 277.6006 0001240  93.0839 267.0292 15.06390584129047,6925.377,95.593,548.101,546.384,0.0
51964.0,STARLINK-3690,PAYLOAD,2024-06-30 23:37:57,15.06405797,0.000134,53.0547,275.5145,89.7013,270.413,-0.00011329,-1.969e-05,0.0,0 STARLINK-3690,1 51964U 22025J   24182.98469247 -.00001969  00000-0 -11329-3 0  9998,2 51964  53.0547 275.5145 0001340  89.7013 270.4130 15.06405797129111,6925.331,95.592,548.124,546.268,0.0
51964.0,STARLINK-3690,PAYLOAD,2024-07-01 12:22:16,15.06400823,0.0001282,53.0536,273.1321,67.6623,292.4502,0.00019359,2.603e-05,0.0,0 STARLINK-3690,1 51964U 22025J   24183.51546711  .00002603  00000-0  19359-3 0  9995,2 51964  53.0536 273.1321 0001282  67.6623 292.4502 15.06400823128106,6925.346,95.592,548.099,546.323,0.0
51964.0,STARLINK-3690,PAYLOAD,2024-07-02 05:53:13,15.06393923,0.0001485,53.0542,269.8556,92.3418,267.7741,0.00027009,3.743e-05,0.0,0 STARLINK-3690,1 51964U 22025J   24184.24529055  .00003743  00000-0  27009-3 0  9995,2 51964  53.0542 269.8556 0001485  92.3418 267.7741 15.06393923129302,6925.367,95.593,548.261,546.204,0.0
51964.0,STARLINK-3690,PAYLOAD,2024-07-02 12:15:22,15.0639557,0.0001352,53.0544,268.6634,96.4033,263.711,0.00017063,2.261e-05,0.0,0 STARLINK-3690,1 51964U 22025J   24184.51067626  .00002261  00000-0  17063-3 0  9999,2 51964  53.0544 268.6634 0001352  96.4033 263.7110 15.06395570128258,6925.362,95.592,548.163,546.291,0.0
51964.0,STARLINK-3690,PAYLOAD,2024-07-03 12:08:28,15.06400378,0.0001209,53.0527,264.198,77.8016,282.3108,5.5175e-05,5.41e-06,0.0,0 STARLINK-3690,1 51964U 22025J   24185.50587987  .00000541  00000-0  55175-4 0  9992,2 51964  53.0527 264.1980 0001209  77.8016 282.3108 15.06400378129493,6925.347,95.592,548.05,546.375,0.0
51964.0,STARLINK-3690,PAYLOAD,2024-07-03 21:41:42,15.06399642,0.0001192,53.053,262.4097,86.7894,273.3231,3.4854e-05,2.38e-06,0.0,0 STARLINK-3690,1 51964U 22025J   24185.90396099  .00000238  00000-0  34854-4 0  9992,2 51964  53.0530 262.4097 0001192  86.7894 273.3231 15.06399642128465,6925.35,95.592,548.04,546.389,0.0
51964.0,STARLINK-3690,PAYLOAD,2024-07-04 05:39:24,15.06391769,0.0001246,53.0539,260.9213,91.3079,268.8053,8.3468e-05,9.62e-06,0.0,0 STARLINK-3690,1 51964U 22025J   24186.23569981  .00000962  00000-0  83468-4 0  9990,2 51964  53.0539 260.9213 0001246  91.3079 268.8053 15.06391769129604,6925.374,95.593,548.102,546.376,0.0
51964.0,STARLINK-3690,PAYLOAD,2024-07-04 12:01:33,15.06399966,0.0001337,53.0549,259.7296,93.3756,266.7386,0.00011972,1.502e-05,0.0,0 STARLINK-3690,1 51964U 22025J   24186.50108193  .00001502  00000-0  11972-3 0  9995,2 51964  53.0549 259.7296 0001337  93.3756 266.7386 15.06399966129644,6925.349,95.592,548.14,546.288,0.0
51964.0,STARLINK-3690,PAYLOAD,2024-07-04 21:34:47,15.06403036,0.0001397,53.0541,257.9423,90.0974,270.0175,8.8163e-05,1.032e-05,0.0,0 STARLINK-3690,1 51964U 22025J   24186.89916143  .00001032  00000-0  88163-4 0  9994,2 51964  53.0541 257.9423 0001397  90.0974 270.0175 15.06403036128614,6925.339,95.592,548.172,546.237,0.0
51964.0,STARLINK-3690,PAYLOAD,2024-07-05 11:54:38,15.06402549,0.0001424,53.0549,255.2625,90.5171,269.5981,0.00014705,1.91e-05,0.0,0 STARLINK-3690,1 51964U 22025J   24187.49628329  .00001910  00000-0  14705-3 0  9992,2 51964  53.0549 255.2625 0001424  90.5171 269.5981 15.06402549128708,6925.341,95.592,548.192,546.22,0.0
51964.0,STARLINK-3690,PAYLOAD,2024-07-05 21:27:53,15.06397692,0.0001333,53.0529,253.4758,90.789,269.3252,4.7413e-05,4.25e-06,0.0,0 STARLINK-3690,1 51964U 22025J   24187.89436630  .00000425  00000-0  47413-4 0  9991,2 51964  53.0529 253.4758 0001333  90.7890 269.3252 15.06397692128769,6925.356,95.592,548.144,546.297,0.0
51964.0,STARLINK-3690,PAYLOAD,2024-07-06 11:47:45,15.06393978,0.0001398,53.0541,250.7952,96.5486,263.5662,6.6769e-06,-1.82e-06,0.0,0 STARLINK-3690,1 51964U 22025J   24188.49149504 -.00000182  00000-0  66769-5 0  9996,2 51964  53.0541 250.7952 0001398  96.5486 263.5662 15.06393978129940,6925.367,95.593,548.2,546.264,0.0
51964.0,STARLINK-3690,PAYLOAD,2024-07-06 21:20:59,15.0639852,0.0001314,53.0536,249.0059,87.7356,272.3784,-2.6765e-05,-6.8e-06,0.0,0 STARLINK-3690,1 51964U 22025J   24188.88957399 -.00000680  00000-0 -26765-4 0  9993,2 51964  53.0536 249.0059 0001314  87.7356 272.3784 15.06398520128916,6925.353,95.592,548.128,546.308,0.0
51964.0,STARLINK-3690,PAYLOAD,2024-07-07 10:05:18,15.06396966,0.0001342,53.0535,246.6232,82.5179,277.5962,6.1108e-06,-1.9e-06,0.0,0 STARLINK-3690,1 51964U 22025J   24189.42034992 -.00000190  00000-0  61108-5 0  9995,2 51964  53.0535 246.6232 0001342  82.5179 277.5962 15.06396966128993,6925.358,95.592,548.152,546.293,0.0
